[{"OBJECT_NAME":"DONGPO 10","OBJECT_ID":"2022-167H","EPOCH":"2026-03-09T22:44:56.137344","MEAN_MOTION":15.322785,"ECCENTRICITY":0.00061655,"INCLINATION":97.685,"RA_OF_ASC_NODE":235.0962,"ARG_OF_PERICENTER":106.9526,"MEAN_ANOMALY":253.2392,"EPHEMERIS_TYPE":0,"CLASSIFICATION_TYPE":"U","NORAD_CAT_ID":54689,"ELEMENT_SET_NO":999,"REV_AT_EPOCH":18015,"BSTAR":0.00049390523,"MEAN_MOTION_DOT":0.00015333,"MEAN_MOTION_DDOT":0},{"OBJECT_NAME":"STARLINK-32359","OBJECT_ID":"2024-209U","EPOCH":"2026-03-09T11:30:05.179104","MEAN_MOTION":15.3019085,"ECCENTRICITY":0.00011793,"INCLINATION":53.1574,"RA_OF_ASC_NODE":143.4521,"ARG_OF_PERICENTER":110.0444,"MEAN_ANOMALY":250.0684,"EPHEMERIS_TYPE":0,"CLASSIFICATION_TYPE":"U","NORAD_CAT_ID":61957,"ELEMENT_SET_NO":999,"REV_AT_EPOCH":7488,"BSTAR":0.00048615343,"MEAN_MOTION_DOT":0.00014063,"MEAN_MOTION_DDOT":0}]
